[{"OBJECT_NAME":"STARLINK-32318","OBJECT_ID":"2024-202V","EPOCH":"2026-03-09T11:45:56.344608","MEAN_MOTION":15.27572747,"ECCENTRICITY":5.194e-5,"INCLINATION":42.9949,"RA_OF_ASC_NODE":239.4111,"ARG_OF_PERICENTER":268.0856,"MEAN_ANOMALY":91.9936,"EPHEMERIS_TYPE":0,"CLASSIFICATION_TYPE":"U","NORAD_CAT_ID":61864,"ELEMENT_SET_NO":999,"REV_AT_EPOCH":7530,"BSTAR":-9.412172e-6,"MEAN_MOTION_DOT":-5.21e-6,"MEAN_MOTION_DDOT":0},{"OBJECT_NAME":"BANDWAGON-4 OBJECT N","OBJECT_ID":"2025-248N","EPOCH":"2026-03-09T00:44:39.250176","MEAN_MOTION":15.24369076,"ECCENTRICITY":0.00135211,"INCLINATION":45.4084,"RA_OF_ASC_NODE":294.9612,"ARG_OF_PERICENTER":206.7837,"MEAN_ANOMALY":153.2354,"EPHEMERIS_TYPE":0,"CLASSIFICATION_TYPE":"U","NORAD_CAT_ID":66305,"ELEMENT_SET_NO":999,"REV_AT_EPOCH":1717,"BSTAR":0.00097341364,"MEAN_MOTION_DOT":0.00024115,"MEAN_MOTION_DDOT":0}]
